OBJECT_NAME,OBJECT_ID,EPOCH,MEAN_MOTION,ECCENTRICITY,INCLINATION,RA_OF_ASC_NODE,ARG_OF_PERICENTER,MEAN_ANOMALY,EPHEMERIS_TYPE,CLASSIFICATION_TYPE,NORAD_CAT_ID,ELEMENT_SET_NO,REV_AT_EPOCH,BSTAR,MEAN_MOTION_DOT,MEAN_MOTION_DDOT
SAUDISAT 2,2004-025F,2026-06-17T12:14:05.276256,14.56684071,.00235784,98.5508,168.5000,297.2213,62.6582,0,U,28371,999,16579,.52561834E-4,.186E-5,0
COSMOS 2407,2004-028A,2026-06-17T03:36:05.242752,13.76334709,.00378352,82.9607,74.8617,252.0457,225.4227,0,U,28380,999,9987,.48757247E-4,.63E-6,0
COSMOS 2414,2005-002A,2026-06-17T14:36:45.700128,13.87926561,.00394612,82.9498,43.3277,330.0628,29.8278,0,U,28521,999,8387,.31389136E-4,.53E-6,0
INMARSAT 4-F1,2005-009A,2026-06-16T18:59:43.988640,1.00270052,.00024762,5.1673,42.7606,43.2986,282.0427,0,U,28628,999,7766,0,.27E-6,0
SJ-7,2005-024A,2026-06-17T02:10:30.551232,15.21542497,.00163506,97.7277,198.1917,38.3711,321.8684,0,U,28737,999,14801,.29953978E-3,.6698E-4,0
CUBESAT XI-V,2005-043F,2026-06-16T09:12:06.602400,14.72629782,.00135859,98.2985,322.9884,203.3717,156.6874,0,U,28895,999,10163,.19648745E-3,.12E-4,0
HINODE (SOLAR-B),2006-041A,2026-06-17T14:15:35.644320,14.68623501,.00160019,98.0547,184.7407,288.3445,71.6019,0,U,29479,999,5493,.96914648E-4,.515E-5,0
SHIJIAN-6 02B (SJ-6 02B),2006-046B,2026-06-17T14:42:36.567072,15.01378679,.0015391,97.7153,197.6691,59.2038,301.0699,0,U,29506,999,7080,.97358372E-4,.1197E-4,0
DMSP 5D-3 F17 (USA 191),2006-050A,2026-06-17T14:15:18.495648,14.14993092,.00111551,98.7378,175.1558,58.3497,301.8763,0,U,29522,999,1248,.16058979E-4,-.12E-6,0
LAPAN-TUBSAT,2007-001A,2026-06-17T14:11:05.900064,14.85948684,.00118626,98.1336,167.8242,178.0034,182.1230,0,U,29709,999,5121,-.19554866E-4,-.229E-5,0
HAIYANG-1B,2007-010A,2026-06-17T11:51:56.842560,14.31026969,.00130327,98.3495,150.3277,195.3754,164.7035,0,U,31113,999,68,.41814656E-4,.68E-6,0
COSMO-SKYMED 2,2007-059A,2026-06-17T15:12:24.797376,14.82155295,.00013463,97.8886,352.2250,87.4955,272.6412,0,U,32376,999,207,.44564101E-4,.303E-5,0
CARTOSAT-2A,2008-021A,2026-06-17T14:06:14.857344,14.79241421,.00132047,97.7630,217.2828,107.4911,252.7746,0,U,32783,999,97886,.13964879E-3,.989E-5,0
CUTE-1.7+APD II (CO-65),2008-021C,2026-06-17T13:55:31.764000,15.09453458,.00097109,97.8273,150.0069,37.7715,322.4193,0,U,32785,999,98525,.24139306E-3,.38E-4,0
SEEDS II (CO-66),2008-021J,2026-06-17T12:39:16.220448,15.32761122,.0001013,97.7515,166.4411,2.1401,357.9844,0,U,32791,999,98734,.46558424E-3,.14659E-3,0
YUBILEINY (RS30),2008-025A,2026-06-17T13:57:06.957792,12.43179662,.00188514,82.5036,355.1949,313.0438,46.9063,0,U,32953,999,81974,.40397444E-3,.66E-6,0
FENGYUN 3A,2008-026A,2026-06-17T11:17:08.004192,14.19571203,.00096049,98.6883,109.2981,122.9237,237.2865,0,U,32958,999,93544,.4513132E-4,.52E-6,0
HUANJING 1A (HJ-1A),2008-041A,2026-06-17T15:19:10.771104,14.83985114,.00199624,97.6677,154.4590,133.3186,226.9697,0,U,33320,999,95847,.79028671E-4,.608E-5,0
HUANJING 1B (HJ-1B),2008-041B,2026-06-17T14:34:56.145792,14.83319028,.00360718,97.6513,157.6003,179.4924,180.6334,0,U,33321,999,95847,.13740266E-3,.1086E-4,0
SHIJIAN-6 03A (SJ-6 03A),2008-053A,2026-06-17T13:50:04.839360,15.17171296,.00116423,97.8400,201.9109,19.0761,341.0905,0,U,33408,999,96302,.30217776E-3,.5938E-4,0
SHIJIAN-6 03B (SJ-6 03B),2008-053B,2026-06-17T15:10:01.401888,15.04307834,.0020828,97.8568,188.5312,43.5730,316.7136,0,U,33409,999,96281,.47719505E-4,.602E-5,0
