SAUDISAT 2              
1 28371U 04025F   26168.50978329  .00000186  00000+0  52562-4 0  9996
2 28371  98.5508 168.5000 0023578 297.2213  62.6582 14.56684071165798
COSMOS 2407             
1 28380U 04028A   26168.15006068  .00000063  00000+0  48757-4 0  9997
2 28380  82.9607  74.8617 0037835 252.0457 225.4227 13.76334709 99879
COSMOS 2414             
1 28521U 05002A   26168.60886227  .00000053  00000+0  31389-4 0  9992
2 28521  82.9498  43.3277 0039461 330.0628  29.8278 13.87926561 83871
INMARSAT 4-F1           
1 28628U 05009A   26167.79148135  .00000027  00000+0  00000+0 0  9997
2 28628   5.1673  42.7606 0002476  43.2986 282.0427  1.00270052 77664
SJ-7                    
1 28737U 05024A   26168.09063138  .00006698  00000+0  29954-3 0  9991
2 28737  97.7277 198.1917 0016350  38.3711 321.8684 15.21542497148018
CUBESAT XI-V            
1 28895U 05043F   26167.38340975  .00001200  00000+0  19649-3 0  9999
2 28895  98.2985 322.9884 0013585 203.3717 156.6874 14.72629782101632
HINODE (SOLAR-B)        
1 29479U 06041A   26168.59416255  .00000515  00000+0  96915-4 0  9996
2 29479  98.0547 184.7407 0016001 288.3445  71.6019 14.68623501 54930
SHIJIAN-6 02B (SJ-6 02B)
1 29506U 06046B   26168.61292323  .00001197  00000+0  97358-4 0  9992
2 29506  97.7153 197.6691 0015391  59.2038 301.0699 15.01378679 70801
DMSP 5D-3 F17 (USA 191) 
1 29522U 06050A   26168.59396407 -.00000012  00000+0  16059-4 0  9995
2 29522  98.7378 175.1558 0011155  58.3497 301.8763 14.14993092 12480
LAPAN-TUBSAT            
1 29709U 07001A   26168.59104051 -.00000229  00000+0 -19555-4 0  9996
2 29709  98.1336 167.8242 0011862 178.0034 182.1230 14.85948684 51213
HAIYANG-1B              
1 31113U 07010A   26168.49440790  .00000068  00000+0  41815-4 0  9993
2 31113  98.3495 150.3277 0013032 195.3754 164.7035 14.31026969   688
COSMO-SKYMED 2          
1 32376U 07059A   26168.63362034  .00000303  00000+0  44564-4 0  9994
2 32376  97.8886 352.2250 0001346  87.4955 272.6412 14.82155295  2075
CARTOSAT-2A             
1 32783U 08021A   26168.58767196  .00000989  00000+0  13965-3 0  9998
2 32783  97.7630 217.2828 0013204 107.4911 252.7746 14.79241421978866
CUTE-1.7+APD II (CO-65) 
1 32785U 08021C   26168.58022875  .00003800  00000+0  24139-3 0  9998
2 32785  97.8273 150.0069 0009710  37.7715 322.4193 15.09453458985258
SEEDS II (CO-66)        
1 32791U 08021J   26168.52727107  .00014659  00000+0  46558-3 0  9992
2 32791  97.7515 166.4411 0001013   2.1401 357.9844 15.32761122987345
YUBILEINY (RS30)        
1 32953U 08025A   26168.58133053  .00000066  00000+0  40397-3 0  9995
2 32953  82.5036 355.1949 0018851 313.0438  46.9063 12.43179662819747
FENGYUN 3A              
1 32958U 08026A   26168.47023153  .00000052  00000+0  45131-4 0  9995
2 32958  98.6883 109.2981 0009604 122.9237 237.2865 14.19571203935447
HUANJING 1A (HJ-1A)     
1 33320U 08041A   26168.63831911  .00000608  00000+0  79029-4 0  9993
2 33320  97.6677 154.4590 0019962 133.3186 226.9697 14.83985114958473
HUANJING 1B (HJ-1B)     
1 33321U 08041B   26168.60759428  .00001086  00000+0  13740-3 0  9991
2 33321  97.6513 157.6003 0036071 179.4924 180.6334 14.83319028958477
SHIJIAN-6 03A (SJ-6 03A)
1 33408U 08053A   26168.57644490  .00005938  00000+0  30218-3 0  9997
2 33408  97.8400 201.9109 0011642  19.0761 341.0905 15.17171296963020
SHIJIAN-6 03B (SJ-6 03B)
1 33409U 08053B   26168.63196067  .00000602  00000+0  47720-4 0  9997
2 33409  97.8568 188.5312 0020828  43.5730 316.7136 15.04307834962812
